{"fetched_at":"2026-07-23T17:55:35.855Z","source":"https://celestrak.org/NORAD/elements/gp.php?NAME=ICEYE&FORMAT=JSON","constellation":"iceye","records":[{"OBJECT_NAME":"ICEYE-X72","OBJECT_ID":"2026-067CS","EPOCH":"2026-07-23T00:00:02.000160","CLASSIFICATION_TYPE":"U","MEAN_MOTION":14.9783217,"ECCENTRICITY":0.00010392,"INCLINATION":97.7636,"RA_OF_ASC_NODE":161.9177,"ARG_OF_PERICENTER":154.615,"MEAN_ANOMALY":255.5598,"EPHEMERIS_TYPE":0,"NORAD_CAT_ID":68504,"ELEMENT_SET_NO":999,"REV_AT_EPOCH":577,"BSTAR":-0.0021169849,"MEAN_MOTION_DOT":-0.00024844,"MEAN_MOTION_DDOT":0},{"OBJECT_NAME":"ICEYE-X78","OBJECT_ID":"2026-100R","EPOCH":"2026-07-23T03:52:50.728800","CLASSIFICATION_TYPE":"U","MEAN_MOTION":14.91822384,"ECCENTRICITY":0.00031307,"INCLINATION":97.7324,"RA_OF_ASC_NODE":100.9435,"ARG_OF_PERICENTER":38.5668,"MEAN_ANOMALY":321.5774,"EPHEMERIS_TYPE":0,"NORAD_CAT_ID":68995,"ELEMENT_SET_NO":999,"REV_AT_EPOCH":1206,"BSTAR":0.000063522197,"MEAN_MOTION_DOT":0.00000586,"MEAN_MOTION_DDOT":0},{"OBJECT_NAME":"ICEYE-X82","OBJECT_ID":"2026-100S","EPOCH":"2026-07-23T04:27:23.025888","CLASSIFICATION_TYPE":"U","MEAN_MOTION":14.91450414,"ECCENTRICITY":0.00053831,"INCLINATION":97.7319,"RA_OF_ASC_NODE":100.906,"ARG_OF_PERICENTER":43.9609,"MEAN_ANOMALY":316.2037,"EPHEMERIS_TYPE":0,"NORAD_CAT_ID":68996,"ELEMENT_SET_NO":999,"REV_AT_EPOCH":1206,"BSTAR":0.00021611693,"MEAN_MOTION_DOT":0.00002106,"MEAN_MOTION_DDOT":0}]}
