ICEYE-X72               
1 68504U 26067CS  26204.00002315 -.00024844  00000+0 -21170-2 0  9995
2 68504  97.7636 161.9177 0001039 154.6150 255.5598 14.97832170  5770
ICEYE-X78               
1 68995U 26100R   26204.16169825  .00000586  00000+0  63522-4 0  9998
2 68995  97.7324 100.9435 0003130  38.5668 321.5774 14.91822384 12066
ICEYE-X82               
1 68996U 26100S   26204.18568317  .00002106  00000+0  21612-3 0  9993
2 68996  97.7319 100.9060 0005383  43.9609 316.2037 14.91450414 12066
